start=new Date('2021-09-11T00:00:00.000Z').valueOf();
sats=[{"EPOCH":"2021-09-10T14:19:01.684128","REF_FRAME":"TEME","TIME_SYSTEM":"UTC","MEAN_ANOMALY":"155.7833","NORAD_CAT_ID":"45552","TLE_LINE2":"2 45552  53.0539 253.6600 0001747 204.3075 155.7833 15.09870953 78015","PERIAPSIS":"535.388","CENTER_NAME":"EARTH","APOAPSIS":"537.804","MEAN_ELEMENT_THEORY":"SGP4","REV_AT_EPOCH":"7801","RCS_SIZE":"LARGE","ARG_OF_PERICENTER":"204.3075","INCLINATION":"53.0539","ECCENTRICITY":"0.00017470","BSTAR":"0.00452010000000","TLE_LINE1":"1 45552U 20025X   21253.59654727  .00074499  00000-0  45201-2 0  9995","LAUNCH_DATE":"2020-04-22","OBJECT_ID":"2020-025X","OBJECT_NAME":"STARLINK-1322","COUNTRY_CODE":"US","ELEMENT_SET_NO":"999","GP_ID":"184473504","CLASSIFICATION_TYPE":"U","OBJECT_TYPE":"PAYLOAD","EPHEMERIS_TYPE":"0","MEAN_MOTION_DOT":"0.00074499","MEAN_MOTION_DDOT":"0.0000000000000","RA_OF_ASC_NODE":"253.6600","DECAY_DATE":null,"SEMIMAJOR_AXIS":"6914.731","SITE":"AFETR","PERIOD":"95.372","MEAN_MOTION":"15.09870953","FILE":"3112758"},{"APOAPSIS":"548.149","MEAN_ELEMENT_THEORY":"SGP4","REV_AT_EPOCH":"7664","TIME_SYSTEM":"UTC","REF_FRAME":"TEME","EPOCH":"2021-09-10T00:37:51.900960","CENTER_NAME":"EARTH","PERIAPSIS":"546.314","TLE_LINE2":"2 45553  53.0543 256.3393 0001325  64.6767 295.4359 15.06394107 76648","NORAD_CAT_ID":"45553","MEAN_ANOMALY":"295.4359","TLE_LINE1":"1 45553U 20025Y   21253.02629515  .00000835  00000-0  74985-4 0  9997","OBJECT_ID":"2020-025Y","LAUNCH_DATE":"2020-04-22","RCS_SIZE":"LARGE","BSTAR":"0.00007498500000","ECCENTRICITY":"0.00013250","ARG_OF_PERICENTER":"64.6767","INCLINATION":"53.0543","MEAN_MOTION_DDOT":"0.0000000000000","MEAN_MOTION_DOT":"0.00000835","DECAY_DATE":null,"RA_OF_ASC_NODE":"256.3393","CLASSIFICATION_TYPE":"U","GP_ID":"184439839","ELEMENT_SET_NO":"999","COUNTRY_CODE":"US","OBJECT_NAME":"STARLINK-1323","OBJECT_TYPE":"PAYLOAD","EPHEMERIS_TYPE":"0","MEAN_MOTION":"15.06394107","FILE":"3112362","PERIOD":"95.593","SITE":"AFETR","SEMIMAJOR_AXIS":"6925.367"},{"SITE":"AFETR","PERIOD":"95.601","FILE":"3112758","MEAN_MOTION":"15.06254785","SEMIMAJOR_AXIS":"6925.794","RA_OF_ASC_NODE":"252.8015","DECAY_DATE":null,"MEAN_MOTION_DOT":"0.00031981","MEAN_MOTION_DDOT":"0.0000000000000","EPHEMERIS_TYPE":"0","OBJECT_TYPE":"PAYLOAD","OBJECT_NAME":"STARLINK-1325","COUNTRY_CODE":"US","ELEMENT_SET_NO":"999","GP_ID":"184472502","CLASSIFICATION_TYPE":"U","OBJECT_ID":"2020-025Z","LAUNCH_DATE":"2020-04-22","TLE_LINE1":"1 45554U 20025Z   21253.81512123  .00031981  00000-0  21646-2 0  9991","INCLINATION":"53.0548","ARG_OF_PERICENTER":"133.5506","ECCENTRICITY":"0.00015230","BSTAR":"0.00216460000000","RCS_SIZE":"LARGE","REV_AT_EPOCH":"7805","MEAN_ELEMENT_THEORY":"SGP4","APOAPSIS":"548.713","MEAN_ANOMALY":"226.5609","TLE_LINE2":"2 45554  53.0548 252.8015 0001523 133.5506 226.5609 15.06254785 78050","NORAD_CAT_ID":"45554","PERIAPSIS":"546.604","CENTER_NAME":"EARTH","EPOCH":"2021-09-10T19:33:46.474272","REF_FRAME":"TEME","TIME_SYSTEM":"UTC"},{"MEAN_MOTION":"15.06392212","FILE":"3112758","SITE":"AFETR","PERIOD":"95.593","SEMIMAJOR_AXIS":"6925.372","MEAN_MOTION_DDOT":"0.0000000000000","MEAN_MOTION_DOT":"-0.00000489","DECAY_DATE":null,"RA_OF_ASC_NODE":"254.1569","ELEMENT_SET_NO":"999","GP_ID":"184473254","CLASSIFICATION_TYPE":"U","OBJECT_NAME":"STARLINK-1327","COUNTRY_CODE":"US","EPHEMERIS_TYPE":"0","OBJECT_TYPE":"PAYLOAD","TLE_LINE1":"1 45555U 20025AA  21253.51284377 -.00000489  00000-0 -13974-4 0  9994","OBJECT_ID":"2020-025AA","LAUNCH_DATE":"2020-04-22","RCS_SIZE":"LARGE","BSTAR":"-0.00001397400000","INCLINATION":"53.0546","ARG_OF_PERICENTER":"73.9802","ECCENTRICITY":"0.00011990","MEAN_ELEMENT_THEORY":"SGP4","APOAPSIS":"548.068","REV_AT_EPOCH":"7800","REF_FRAME":"TEME","TIME_SYSTEM":"UTC","EPOCH":"2021-09-10T12:18:29.701728","TLE_LINE2":"2 45555  53.0546 254.1569 0001199  73.9802 286.1319 15.06392212 78006","PERIAPSIS":"546.407","NORAD_CAT_ID":"45555","CENTER_NAME":"EARTH","MEAN_ANOMALY":"286.1319"},{"TLE_LINE1":"1 45556U 20025AB  21253.02260146 -.00001303  00000-0 -68591-4 0  9990","LAUNCH_DATE":"2020-04-22","OBJECT_ID":"2020-025AB","RCS_SIZE":"LARGE","ECCENTRICITY":"0.00006660","ARG_OF_PERICENTER":"78.9888","INCLINATION":"53.0534","BSTAR":"-0.00006859100000","APOAPSIS":"547.674","MEAN_ELEMENT_THEORY":"SGP4","REV_AT_EPOCH":"7793","EPOCH":"2021-09-10T00:32:32.766144","TIME_SYSTEM":"UTC","REF_FRAME":"TEME","MEAN_ANOMALY":"281.1175","CENTER_NAME":"EARTH","NORAD_CAT_ID":"45556","TLE_LINE2":"2 45556  53.0534 256.3581 0000666  78.9888 281.1175 15.06400281 77931","PERIAPSIS":"546.751","PERIOD":"95.592","SITE":"AFETR","MEAN_MOTION":"15.06400281","FILE":"3112362","SEMIMAJOR_AXIS":"6925.348","MEAN_MOTION_DOT":"-0.00001303","MEAN_MOTION_DDOT":"0.0000000000000","RA_OF_ASC_NODE":"256.3581","DECAY_DATE":null,"COUNTRY_CODE":"US","OBJECT_NAME":"STARLINK-1334","GP_ID":"184441091","CLASSIFICATION_TYPE":"U","ELEMENT_SET_NO":"999","OBJECT_TYPE":"PAYLOAD","EPHEMERIS_TYPE":"0"},{"MEAN_MOTION":"15.06402108","FILE":"3112758","SITE":"AFETR","PERIOD":"95.592","SEMIMAJOR_AXIS":"6925.342","MEAN_MOTION_DDOT":"0.0000000000000","MEAN_MOTION_DOT":"0.00000756","DECAY_DATE":null,"RA_OF_ASC_NODE":"252.7489","ELEMENT_SET_NO":"999","GP_ID":"184471753","CLASSIFICATION_TYPE":"U","OBJECT_NAME":"STARLINK-1336","COUNTRY_CODE":"US","EPHEMERIS_TYPE":"0","OBJECT_TYPE":"PAYLOAD","TLE_LINE1":"1 45557U 20025AC  21253.82614043  .00000756  00000-0  69592-4 0  9999","OBJECT_ID":"2020-025AC","LAUNCH_DATE":"2020-04-22","RCS_SIZE":"LARGE","BSTAR":"0.00006959200000","INCLINATION":"53.0546","ARG_OF_PERICENTER":"59.9301","ECCENTRICITY":"0.00009180","APOAPSIS":"547.843","MEAN_ELEMENT_THEORY":"SGP4","REV_AT_EPOCH":"7805","REF_FRAME":"TEME","TIME_SYSTEM":"UTC","EPOCH":"2021-09-10T19:49:38.533152","TLE_LINE2":"2 45557  53.0546 252.7489 0000918  59.9301 300.1779 15.06402108 78057","NORAD_CAT_ID":"45557","PERIAPSIS":"546.571","CENTER_NAME":"EARTH","MEAN_ANOMALY":"300.1779"},{"MEAN_ANOMALY":"296.3774","CENTER_NAME":"EARTH","TLE_LINE2":"2 45558  53.0536 254.0907 0000951  63.7313 296.3774 15.06393472 78009","NORAD_CAT_ID":"45558","PERIAPSIS":"546.575","EPOCH":"2021-09-10T12:39:43.185888","TIME_SYSTEM":"UTC","REF_FRAME":"TEME","REV_AT_EPOCH":"7800","APOAPSIS":"547.892","MEAN_ELEMENT_THEORY":"SGP4","ECCENTRICITY":"0.00009510","ARG_OF_PERICENTER":"63.7313","INCLINATION":"53.0536","BSTAR":"0.00007997400000","RCS_SIZE":"LARGE","LAUNCH_DATE":"2020-04-22","OBJECT_ID":"2020-025AD","TLE_LINE1":"1 45558U 20025AD  21253.52758317  .00000910  00000-0  79974-4 0  9997","OBJECT_TYPE":"PAYLOAD","EPHEMERIS_TYPE":"0","COUNTRY_CODE":"US","OBJECT_NAME":"STARLINK-1342","GP_ID":"184472003","CLASSIFICATION_TYPE":"U","ELEMENT_SET_NO":"999","RA_OF_ASC_NODE":"254.0907","DECAY_DATE":null,"MEAN_MOTION_DOT":"0.00000910","MEAN_MOTION_DDOT":"0.0000000000000","SEMIMAJOR_AXIS":"6925.369","PERIOD":"95.593","SITE":"AFETR","MEAN_MOTION":"15.06393472","FILE":"3112758"},{"APOAPSIS":"547.799","MEAN_ELEMENT_THEORY":"SGP4","REV_AT_EPOCH":"7800","EPOCH":"2021-09-10T11:57:15.069312","REF_FRAME":"TEME","TIME_SYSTEM":"UTC","MEAN_ANOMALY":"284.3115","PERIAPSIS":"546.667","TLE_LINE2":"2 45559  53.0531 254.2204 0000817  75.7965 284.3115 15.06393714 78009","NORAD_CAT_ID":"45559","CENTER_NAME":"EARTH","TLE_LINE1":"1 45559U 20025AE  21253.49809108 -.00000838  00000-0 -37389-4 0  9994","OBJECT_ID":"2020-025AE","LAUNCH_DATE":"2020-04-22","RCS_SIZE":"LARGE","INCLINATION":"53.0531","ARG_OF_PERICENTER":"75.7965","ECCENTRICITY":"0.00008170","BSTAR":"-0.00003738900000","MEAN_MOTION_DOT":"-0.00000838","MEAN_MOTION_DDOT":"0.0000000000000","RA_OF_ASC_NODE":"254.2204","DECAY_DATE":null,"OBJECT_NAME":"STARLINK-1344","COUNTRY_CODE":"US","ELEMENT_SET_NO":"999","CLASSIFICATION_TYPE":"U","GP_ID":"184472755","OBJECT_TYPE":"PAYLOAD","EPHEMERIS_TYPE":"0","SITE":"AFETR","PERIOD":"95.593","FILE":"3112758","MEAN_MOTION":"15.06393714","SEMIMAJOR_AXIS":"6925.368"},{"OBJECT_TYPE":"PAYLOAD","EPHEMERIS_TYPE":"0","COUNTRY_CODE":"US","OBJECT_NAME":"STARLINK-1346","GP_ID":"184473505","CLASSIFICATION_TYPE":"U","ELEMENT_SET_NO":"999","RA_OF_ASC_NODE":"244.2836","DECAY_DATE":null,"MEAN_MOTION_DOT":"0.00000671","MEAN_MOTION_DDOT":"0.0000000000000","SEMIMAJOR_AXIS":"6925.318","PERIOD":"95.591","SITE":"AFETR","FILE":"3112758","MEAN_MOTION":"15.06410100","MEAN_ANOMALY":"297.6444","CENTER_NAME":"EARTH","PERIAPSIS":"546.636","TLE_LINE2":"2 45560  53.0538 244.2836 0000789  62.4625 297.6444 15.06410100 78148","NORAD_CAT_ID":"45560","EPOCH":"2021-09-10T11:37:21.000576","TIME_SYSTEM":"UTC","REF_FRAME":"TEME","REV_AT_EPOCH":"7814","MEAN_ELEMENT_THEORY":"SGP4","APOAPSIS":"547.729","ECCENTRICITY":"0.00007890","ARG_OF_PERICENTER":"62.4625","INCLINATION":"53.0538","BSTAR":"0.00006388400000","RCS_SIZE":"LARGE","LAUNCH_DATE":"2020-04-22","OBJECT_ID":"2020-025AF","TLE_LINE1":"1 45560U 20025AF  21253.48427084  .00000671  00000-0  63884-4 0  9996"},{"RCS_SIZE":"LARGE","ECCENTRICITY":"0.00021560","INCLINATION":"53.0586","ARG_OF_PERICENTER":"95.2608","BSTAR":"0.00025431000000","TLE_LINE1":"1 45561U 20025AG  21253.86741702  .00003556  00000-0  25431-3 0  9995","LAUNCH_DATE":"2020-04-22","OBJECT_ID":"2020-025AG","EPOCH":"2021-09-10T20:49:04.830528","TIME_SYSTEM":"UTC","REF_FRAME":"TEME","MEAN_ANOMALY":"264.8627","CENTER_NAME":"EARTH","TLE_LINE2":"2 45561  53.0586 167.4565 0002156  95.2608 264.8627 15.06879065 79253","PERIAPSIS":"544.253","NORAD_CAT_ID":"45561","MEAN_ELEMENT_THEORY":"SGP4","APOAPSIS":"547.238","REV_AT_EPOCH":"7925","SEMIMAJOR_AXIS":"6923.881","PERIOD":"95.562","SITE":"AFETR","FILE":"3112758","MEAN_MOTION":"15.06879065","COUNTRY_CODE":"US","OBJECT_NAME":"STARLINK-1348","GP_ID":"184472253","CLASSIFICATION_TYPE":"U","ELEMENT_SET_NO":"999","EPHEMERIS_TYPE":"0","OBJECT_TYPE":"PAYLOAD","MEAN_MOTION_DOT":"0.00003556","MEAN_MOTION_DDOT":"0.0000000000000","RA_OF_ASC_NODE":"167.4565","DECAY_DATE":null}];
